{
  "type": "FeatureCollection",
  "features": [
    {
      "type": "Feature",
      "properties": {
        "norad_id": 37094,
        "name": "COSMOS 2251 DEB",
        "group": "cosmos-2251-debris",
        "lat": 38.42330420910048,
        "lon": 139.430505033774,
        "alt_km": 725.9357634616654,
        "timestamp": "2025-12-09T21:34:11.807095+00:00",
        "meta_object_name": "COSMOS 2251 DEB",
        "meta_object_id": "1993-036BFQ",
        "meta_epoch": "2025-12-09T03:00:55.518912",
        "meta_mean_motion": 14.37794423,
        "meta_eccentricity": 0.00840104,
        "meta_inclination": 74.1082,
        "meta_ra_of_asc_node": 127.7863,
        "meta_arg_of_pericenter": 94.7436,
        "meta_mean_anomaly": 266.3318,
        "meta_ephemeris_type": 0,
        "meta_classification_type": "U",
        "meta_norad_cat_id": 37094,
        "meta_element_set_no": 999,
        "meta_rev_at_epoch": 84454,
        "meta_bstar": 0.0012132695,
        "meta_mean_motion_dot": 3.783e-05,
        "meta_mean_motion_ddot": 0,
        "tle_line1": "1 37094U 93036BFQ 25343.12564258  .00003783  00000+0  12133-2 0  9996",
        "tle_line2": "2 37094  74.1082 127.7863 0084010  94.7436 266.3318 14.37794423844545"
      },
      "geometry": {
        "type": "Point",
        "coordinates": [
          139.430505033774,
          38.42330420910048
        ]
      }
    },
    {
      "type": "Feature",
      "properties": {
        "norad_id": 37095,
        "name": "COSMOS 2251 DEB",
        "group": "cosmos-2251-debris",
        "lat": -34.74039599452798,
        "lon": -176.67687815533068,
        "alt_km": 838.2988230364745,
        "timestamp": "2025-12-09T21:34:11.807105+00:00",
        "meta_object_name": "COSMOS 2251 DEB",
        "meta_object_id": "1993-036BFR",
        "meta_epoch": "2025-12-05T08:14:56.192352",
        "meta_mean_motion": 14.03341959,
        "meta_eccentricity": 0.01953957,
        "meta_inclination": 73.8477,
        "meta_ra_of_asc_node": 202.9366,
        "meta_arg_of_pericenter": 261.9904,
        "meta_mean_anomaly": 95.9019,
        "meta_ephemeris_type": 0,
        "meta_classification_type": "U",
        "meta_norad_cat_id": 37095,
        "meta_element_set_no": 999,
        "meta_rev_at_epoch": 62532,
        "meta_bstar": 0.0025687664,
        "meta_mean_motion_dot": 4.727e-05,
        "meta_mean_motion_ddot": 0,
        "tle_line1": "1 37095U 93036BFR 25339.34370593  .00004727  00000+0  25688-2 0  9991",
        "tle_line2": "2 37095  73.8477 202.9366 0195395 261.9904  95.9019 14.03341959625323"
      },
      "geometry": {
        "type": "Point",
        "coordinates": [
          -176.67687815533068,
          -34.74039599452798
        ]
      }
    },
    {
      "type": "Feature",
      "properties": {
        "norad_id": 37108,
        "name": "COSMOS 2251 DEB",
        "group": "cosmos-2251-debris",
        "lat": -21.832863033688877,
        "lon": 79.23918581905542,
        "alt_km": 824.471756640969,
        "timestamp": "2025-12-09T21:34:11.807115+00:00",
        "meta_object_name": "COSMOS 2251 DEB",
        "meta_object_id": "1993-036BGE",
        "meta_epoch": "2025-12-08T17:21:24.429024",
        "meta_mean_motion": 14.41240168,
        "meta_eccentricity": 0.00918255,
        "meta_inclination": 74.0439,
        "meta_ra_of_asc_node": 87.996,
        "meta_arg_of_pericenter": 165.5632,
        "meta_mean_anomaly": 194.8181,
        "meta_ephemeris_type": 0,
        "meta_classification_type": "U",
        "meta_norad_cat_id": 37108,
        "meta_element_set_no": 999,
        "meta_rev_at_epoch": 85449,
        "meta_bstar": 0.002465693,
        "meta_mean_motion_dot": 8.357e-05,
        "meta_mean_motion_ddot": 0,
        "tle_line1": "1 37108U 93036BGE 25342.72319941  .00008357  00000+0  24657-2 0  9990",
        "tle_line2": "2 37108  74.0439  87.9960 0091825 165.5632 194.8181 14.41240168854493"
      },
      "geometry": {
        "type": "Point",
        "coordinates": [
          79.23918581905542,
          -21.832863033688877
        ]
      }
    },
    {
      "type": "Feature",
      "properties": {
        "norad_id": 37126,
        "name": "COSMOS 2251 DEB",
        "group": "cosmos-2251-debris",
        "lat": -73.82618457749777,
        "lon": -82.86168817060368,
        "alt_km": 585.3019769923258,
        "timestamp": "2025-12-09T21:34:11.807125+00:00",
        "meta_object_name": "COSMOS 2251 DEB",
        "meta_object_id": "1993-036BGY",
        "meta_epoch": "2025-12-07T08:01:44.004576",
        "meta_mean_motion": 14.73044037,
        "meta_eccentricity": 0.01233958,
        "meta_inclination": 73.952,
        "meta_ra_of_asc_node": 5.1188,
        "meta_arg_of_pericenter": 244.4647,
        "meta_mean_anomaly": 114.3726,
        "meta_ephemeris_type": 0,
        "meta_classification_type": "U",
        "meta_norad_cat_id": 37126,
        "meta_element_set_no": 999,
        "meta_rev_at_epoch": 8019,
        "meta_bstar": 0.00045541801,
        "meta_mean_motion_dot": 3.268e-05,
        "meta_mean_motion_ddot": 0,
        "tle_line1": "1 37126U 93036BGY 25341.33453709  .00003268  00000+0  45542-3 0  9990",
        "tle_line2": "2 37126  73.9520   5.1188 0123395 244.4647 114.3726 14.73044037 80199"
      },
      "geometry": {
        "type": "Point",
        "coordinates": [
          -82.86168817060368,
          -73.82618457749777
        ]
      }
    },
    {
      "type": "Feature",
      "properties": {
        "norad_id": 37132,
        "name": "COSMOS 2251 DEB",
        "group": "cosmos-2251-debris",
        "lat": -72.98760962516731,
        "lon": 169.97406611650098,
        "alt_km": 657.388009538874,
        "timestamp": "2025-12-09T21:34:11.807135+00:00",
        "meta_object_name": "COSMOS 2251 DEB",
        "meta_object_id": "1993-036BHE",
        "meta_epoch": "2025-12-07T11:27:27.762624",
        "meta_mean_motion": 14.77705967,
        "meta_eccentricity": 0.0039737,
        "meta_inclination": 74.0029,
        "meta_ra_of_asc_node": 244.3909,
        "meta_arg_of_pericenter": 41.7313,
        "meta_mean_anomaly": 318.688,
        "meta_ephemeris_type": 0,
        "meta_classification_type": "U",
        "meta_norad_cat_id": 37132,
        "meta_element_set_no": 999,
        "meta_rev_at_epoch": 62338,
        "meta_bstar": 0.0017835716,
        "meta_mean_motion_dot": 0.00012942,
        "meta_mean_motion_ddot": 0,
        "tle_line1": "1 37132U 93036BHE 25341.47740466  .00012942  00000+0  17836-2 0  9994",
        "tle_line2": "2 37132  74.0029 244.3909 0039737  41.7313 318.6880 14.77705967623388"
      },
      "geometry": {
        "type": "Point",
        "coordinates": [
          169.97406611650098,
          -72.98760962516731
        ]
      }
    },
    {
      "type": "Feature",
      "properties": {
        "norad_id": 37270,
        "name": "COSMOS 2251 DEB",
        "group": "cosmos-2251-debris",
        "lat": -15.60883074597297,
        "lon": 165.13740635148721,
        "alt_km": 1310.048696812295,
        "timestamp": "2025-12-09T21:34:11.807145+00:00",
        "meta_object_name": "COSMOS 2251 DEB",
        "meta_object_id": "1993-036BHJ",
        "meta_epoch": "2025-12-06T23:44:09.019392",
        "meta_mean_motion": 13.59708116,
        "meta_eccentricity": 0.03977945,
        "meta_inclination": 73.9304,
        "meta_ra_of_asc_node": 345.2655,
        "meta_arg_of_pericenter": 358.2371,
        "meta_mean_anomaly": 1.731,
        "meta_ephemeris_type": 0,
        "meta_classification_type": "U",
        "meta_norad_cat_id": 37270,
        "meta_element_set_no": 999,
        "meta_rev_at_epoch": 76991,
        "meta_bstar": 0.0060698053,
        "meta_mean_motion_dot": 7.585e-05,
        "meta_mean_motion_ddot": 0,
        "tle_line1": "1 37270U 93036BHJ 25340.98899328  .00007585  00000+0  60698-2 0  9995",
        "tle_line2": "2 37270  73.9304 345.2655 0397794 358.2371   1.7310 13.59708116769910"
      },
      "geometry": {
        "type": "Point",
        "coordinates": [
          165.13740635148721,
          -15.60883074597297
        ]
      }
    },
    {
      "type": "Feature",
      "properties": {
        "norad_id": 37278,
        "name": "COSMOS 2251 DEB",
        "group": "cosmos-2251-debris",
        "lat": 15.214243080359989,
        "lon": -1.0310029365999525,
        "alt_km": 1046.886218457088,
        "timestamp": "2025-12-09T21:34:11.807156+00:00",
        "meta_object_name": "COSMOS 2251 DEB",
        "meta_object_id": "1993-036BHS",
        "meta_epoch": "2025-12-04T09:26:36.152736",
        "meta_mean_motion": 14.15029915,
        "meta_eccentricity": 0.029998,
        "meta_inclination": 73.7864,
        "meta_ra_of_asc_node": 4.3592,
        "meta_arg_of_pericenter": 188.2556,
        "meta_mean_anomaly": 234.4903,
        "meta_ephemeris_type": 0,
        "meta_classification_type": "U",
        "meta_norad_cat_id": 37278,
        "meta_element_set_no": 999,
        "meta_rev_at_epoch": 63711,
        "meta_bstar": 0.0023061,
        "meta_mean_motion_dot": 6.884e-05,
        "meta_mean_motion_ddot": 0,
        "tle_line1": "1 37278U 93036BHS 25338.39347399  .00006884  00000+0  23061-2 0  9995",
        "tle_line2": "2 37278  73.7864   4.3592 0299980 188.2556 234.4903 14.15029915637119"
      },
      "geometry": {
        "type": "Point",
        "coordinates": [
          -1.0310029365999525,
          15.214243080359989
        ]
      }
    }
  ]
}